LEMUR-2-AMANDA-SVANTE   
1 48269U 21034B   26068.77637527  .00030872  00000+0  11134-2 0  9996
2 48269  97.5829 144.8625 0002703 205.4721 154.6385 15.28469003265849
STARLINK-33729          
1 63647U 25083P   26068.17050772  .00038185  00000+0  13894-2 0  9996
2 63647  43.0024   8.4706 0000993 267.3311  92.7427 15.27593460 49983
